ONEWEB-0675             
1 55834U 23029AQ  26156.68308141  .00000232  00000+0  54698-3 0  9993
2 55834  87.9167 307.2710 0001883 100.3548 259.7797 13.19727568157408
ONEWEB-0720             
1 55835U 23029AR  26156.67518019 -.00000190  00000+0 -50807-3 0  9993
2 55835  87.9158 307.2715 0001489  96.4720 263.6582 13.19725277157325
ONEWEB-0537             
1 56046U 23043A   26156.49106659  .00000090  00000+0  20166-3 0  9999
2 56046  87.9096 231.0944 0002228 104.4591 255.6787 13.16594004157425
ONEWEB-0538             
1 56047U 23043B   26156.48473036  .00000716  00000+0  18386-2 0  9990
2 56047  87.9106 231.0976 0002582 105.9744 254.1671 13.16599624157432
ONEWEB-0546             
1 56048U 23043C   26156.47207093  .00000001  00000+0 -31095-4 0  9990
2 56048  87.9105 231.0995 0002706 104.9645 255.1786 13.16594360157429
ONEWEB-0547             
1 56049U 23043D   26156.51517734  .00000149  00000+0  32919-3 0  9999
2 56049  87.9258 246.2965 0001952 102.0249 258.1104 13.21826560156685
ONEWEB-0548             
1 56050U 23043E   26156.49660656  .00000133  00000+0  31298-3 0  9992
2 56050  87.9101 231.0916 0002175  87.1007 273.0373 13.16596053157427
ONEWEB-0549             
1 56051U 23043F   26156.81208124 -.00000009  00000+0 -52934-4 0  9992
2 56051  87.9255 246.2440 0001860 110.8387 249.2947 13.21826267156726
ONEWEB-0550             
1 56052U 23043G   26156.79863605  .00000033  00000+0  49442-4 0  9996
2 56052  87.9260 246.2443 0002029  97.2564 262.8801 13.21824751156725
ONEWEB-0551             
1 56053U 23043H   26155.68183339  .00000013  00000+0  89013-6 0  9991
2 56053  87.8998 261.7182 0001744 112.1230 248.0085 13.15548865154758
ONEWEB-0552             
1 56054U 23043J   26156.49079399  .00000071  00000+0  14041-3 0  9992
2 56054  87.9255 246.3109 0001788  97.1947 262.9390 13.21828082156686
ONEWEB-0553             
1 56055U 23043K   26156.47839845  .00000034  00000+0  55172-4 0  9991
2 56055  87.9097 231.0988 0002379  98.6871 261.4529 13.16593882157439
ONEWEB-0554             
1 56056U 23043L   26156.46573730 -.00000049  00000+0 -16155-3 0  9994
2 56056  87.9105 231.1108 0002210  92.6668 267.4716 13.16594205157419
ONEWEB-0555             
1 56057U 23043M   26156.50372859  .00000002  00000+0 -29068-4 0  9995
2 56057  87.9102 231.0910 0002607 102.9720 257.1702 13.16595825157422
ONEWEB-0557             
1 56058U 23043N   26156.44198046  .00000012  00000+0 -31601-5 0  9991
2 56058  87.9089 231.1130 0003039  83.5412 276.6065 13.16593291157416
ONEWEB-0558             
1 56059U 23043P   26156.48406122  .00000053  00000+0  97520-4 0  9998
2 56059  87.9257 246.3068 0001942 109.2985 250.8359 13.21827217156697
