[{"OBJECT_NAME":"ONEWEB-0675","OBJECT_ID":"2023-029AQ","EPOCH":"2026-06-05T16:23:38.233824","MEAN_MOTION":13.19727568,"ECCENTRICITY":0.0001883,"INCLINATION":87.9167,"RA_OF_ASC_NODE":307.271,"ARG_OF_PERICENTER":100.3548,"MEAN_ANOMALY":259.7797,"EPHEMERIS_TYPE":0,"CLASSIFICATION_TYPE":"U","NORAD_CAT_ID":55834,"ELEMENT_SET_NO":999,"REV_AT_EPOCH":15740,"BSTAR":0.0005469800000000001,"MEAN_MOTION_DOT":2.32e-06,"MEAN_MOTION_DDOT":0.0},{"OBJECT_NAME":"ONEWEB-0720","OBJECT_ID":"2023-029AR","EPOCH":"2026-06-05T16:12:15.568416","MEAN_MOTION":13.19725277,"ECCENTRICITY":0.0001489,"INCLINATION":87.9158,"RA_OF_ASC_NODE":307.2715,"ARG_OF_PERICENTER":96.472,"MEAN_ANOMALY":263.6582,"EPHEMERIS_TYPE":0,"CLASSIFICATION_TYPE":"U","NORAD_CAT_ID":55835,"ELEMENT_SET_NO":999,"REV_AT_EPOCH":15732,"BSTAR":-0.00050807,"MEAN_MOTION_DOT":-1.9e-06,"MEAN_MOTION_DDOT":0.0},{"OBJECT_NAME":"ONEWEB-0537","OBJECT_ID":"2023-043A","EPOCH":"2026-06-05T11:47:08.153376","MEAN_MOTION":13.16594004,"ECCENTRICITY":0.0002228,"INCLINATION":87.9096,"RA_OF_ASC_NODE":231.0944,"ARG_OF_PERICENTER":104.4591,"MEAN_ANOMALY":255.6787,"EPHEMERIS_TYPE":0,"CLASSIFICATION_TYPE":"U","NORAD_CAT_ID":56046,"ELEMENT_SET_NO":999,"REV_AT_EPOCH":15742,"BSTAR":0.00020166000000000002,"MEAN_MOTION_DOT":9e-07,"MEAN_MOTION_DDOT":0.0},{"OBJECT_NAME":"ONEWEB-0538","OBJECT_ID":"2023-043B","EPOCH":"2026-06-05T11:38:00.703104","MEAN_MOTION":13.16599624,"ECCENTRICITY":0.0002582,"INCLINATION":87.9106,"RA_OF_ASC_NODE":231.0976,"ARG_OF_PERICENTER":105.9744,"MEAN_ANOMALY":254.1671,"EPHEMERIS_TYPE":0,"CLASSIFICATION_TYPE":"U","NORAD_CAT_ID":56047,"ELEMENT_SET_NO":999,"REV_AT_EPOCH":15743,"BSTAR":0.0018386,"MEAN_MOTION_DOT":7.16e-06,"MEAN_MOTION_DDOT":0.0},{"OBJECT_NAME":"ONEWEB-0546","OBJECT_ID":"2023-043C","EPOCH":"2026-06-05T11:19:46.928352","MEAN_MOTION":13.1659436,"ECCENTRICITY":0.0002706,"INCLINATION":87.9105,"RA_OF_ASC_NODE":231.0995,"ARG_OF_PERICENTER":104.9645,"MEAN_ANOMALY":255.1786,"EPHEMERIS_TYPE":0,"CLASSIFICATION_TYPE":"U","NORAD_CAT_ID":56048,"ELEMENT_SET_NO":999,"REV_AT_EPOCH":15742,"BSTAR":-3.1095e-05,"MEAN_MOTION_DOT":1e-08,"MEAN_MOTION_DDOT":0.0},{"OBJECT_NAME":"ONEWEB-0547","OBJECT_ID":"2023-043D","EPOCH":"2026-06-05T12:21:51.322176","MEAN_MOTION":13.2182656,"ECCENTRICITY":0.0001952,"INCLINATION":87.9258,"RA_OF_ASC_NODE":246.2965,"ARG_OF_PERICENTER":102.0249,"MEAN_ANOMALY":258.1104,"EPHEMERIS_TYPE":0,"CLASSIFICATION_TYPE":"U","NORAD_CAT_ID":56049,"ELEMENT_SET_NO":999,"REV_AT_EPOCH":15668,"BSTAR":0.00032919,"MEAN_MOTION_DOT":1.49e-06,"MEAN_MOTION_DDOT":0.0},{"OBJECT_NAME":"ONEWEB-0548","OBJECT_ID":"2023-043E","EPOCH":"2026-06-05T11:55:06.806784","MEAN_MOTION":13.16596053,"ECCENTRICITY":0.0002175,"INCLINATION":87.9101,"RA_OF_ASC_NODE":231.0916,"ARG_OF_PERICENTER":87.1007,"MEAN_ANOMALY":273.0373,"EPHEMERIS_TYPE":0,"CLASSIFICATION_TYPE":"U","NORAD_CAT_ID":56050,"ELEMENT_SET_NO":999,"REV_AT_EPOCH":15742,"BSTAR":0.00031298,"MEAN_MOTION_DOT":1.33e-06,"MEAN_MOTION_DDOT":0.0},{"OBJECT_NAME":"ONEWEB-0549","OBJECT_ID":"2023-043F","EPOCH":"2026-06-05T19:29:23.819136","MEAN_MOTION":13.21826267,"ECCENTRICITY":0.000186,"INCLINATION":87.9255,"RA_OF_ASC_NODE":246.244,"ARG_OF_PERICENTER":110.8387,"MEAN_ANOMALY":249.2947,"EPHEMERIS_TYPE":0,"CLASSIFICATION_TYPE":"U","NORAD_CAT_ID":56051,"ELEMENT_SET_NO":999,"REV_AT_EPOCH":15672,"BSTAR":-5.2934000000000005e-05,"MEAN_MOTION_DOT":-9e-08,"MEAN_MOTION_DDOT":0.0},{"OBJECT_NAME":"ONEWEB-0550","OBJECT_ID":"2023-043G","EPOCH":"2026-06-05T19:10:02.154720","MEAN_MOTION":13.21824751,"ECCENTRICITY":0.0002029,"INCLINATION":87.926,"RA_OF_ASC_NODE":246.2443,"ARG_OF_PERICENTER":97.2564,"MEAN_ANOMALY":262.8801,"EPHEMERIS_TYPE":0,"CLASSIFICATION_TYPE":"U","NORAD_CAT_ID":56052,"ELEMENT_SET_NO":999,"REV_AT_EPOCH":15672,"BSTAR":4.9442000000000005e-05,"MEAN_MOTION_DOT":3.3e-07,"MEAN_MOTION_DDOT":0.0},{"OBJECT_NAME":"ONEWEB-0551","OBJECT_ID":"2023-043H","EPOCH":"2026-06-04T16:21:50.404896","MEAN_MOTION":13.15548865,"ECCENTRICITY":0.0001744,"INCLINATION":87.8998,"RA_OF_ASC_NODE":261.7182,"ARG_OF_PERICENTER":112.123,"MEAN_ANOMALY":248.0085,"EPHEMERIS_TYPE":0,"CLASSIFICATION_TYPE":"U","NORAD_CAT_ID":56053,"ELEMENT_SET_NO":999,"REV_AT_EPOCH":15475,"BSTAR":8.901299999999999e-07,"MEAN_MOTION_DOT":1.3e-07,"MEAN_MOTION_DDOT":0.0},{"OBJECT_NAME":"ONEWEB-0552","OBJECT_ID":"2023-043J","EPOCH":"2026-06-05T11:46:44.600736","MEAN_MOTION":13.21828082,"ECCENTRICITY":0.0001788,"INCLINATION":87.9255,"RA_OF_ASC_NODE":246.3109,"ARG_OF_PERICENTER":97.1947,"MEAN_ANOMALY":262.939,"EPHEMERIS_TYPE":0,"CLASSIFICATION_TYPE":"U","NORAD_CAT_ID":56054,"ELEMENT_SET_NO":999,"REV_AT_EPOCH":15668,"BSTAR":0.00014041000000000002,"MEAN_MOTION_DOT":7.1e-07,"MEAN_MOTION_DDOT":0.0},{"OBJECT_NAME":"ONEWEB-0553","OBJECT_ID":"2023-043K","EPOCH":"2026-06-05T11:28:53.626080","MEAN_MOTION":13.16593882,"ECCENTRICITY":0.0002379,"INCLINATION":87.9097,"RA_OF_ASC_NODE":231.0988,"ARG_OF_PERICENTER":98.6871,"MEAN_ANOMALY":261.4529,"EPHEMERIS_TYPE":0,"CLASSIFICATION_TYPE":"U","NORAD_CAT_ID":56055,"ELEMENT_SET_NO":999,"REV_AT_EPOCH":15743,"BSTAR":5.5172e-05,"MEAN_MOTION_DOT":3.4e-07,"MEAN_MOTION_DDOT":0.0},{"OBJECT_NAME":"ONEWEB-0554","OBJECT_ID":"2023-043L","EPOCH":"2026-06-05T11:10:39.702720","MEAN_MOTION":13.16594205,"ECCENTRICITY":0.000221,"INCLINATION":87.9105,"RA_OF_ASC_NODE":231.1108,"ARG_OF_PERICENTER":92.6668,"MEAN_ANOMALY":267.4716,"EPHEMERIS_TYPE":0,"CLASSIFICATION_TYPE":"U","NORAD_CAT_ID":56056,"ELEMENT_SET_NO":999,"REV_AT_EPOCH":15741,"BSTAR":-0.00016155,"MEAN_MOTION_DOT":-4.9e-07,"MEAN_MOTION_DDOT":0.0},{"OBJECT_NAME":"ONEWEB-0555","OBJECT_ID":"2023-043M","EPOCH":"2026-06-05T12:05:22.150176","MEAN_MOTION":13.16595825,"ECCENTRICITY":0.0002607,"INCLINATION":87.9102,"RA_OF_ASC_NODE":231.091,"ARG_OF_PERICENTER":102.972,"MEAN_ANOMALY":257.1702,"EPHEMERIS_TYPE":0,"CLASSIFICATION_TYPE":"U","NORAD_CAT_ID":56057,"ELEMENT_SET_NO":999,"REV_AT_EPOCH":15742,"BSTAR":-2.9068e-05,"MEAN_MOTION_DOT":2e-08,"MEAN_MOTION_DDOT":0.0},{"OBJECT_NAME":"ONEWEB-0557","OBJECT_ID":"2023-043N","EPOCH":"2026-06-05T10:36:27.111744","MEAN_MOTION":13.16593291,"ECCENTRICITY":0.0003039,"INCLINATION":87.9089,"RA_OF_ASC_NODE":231.113,"ARG_OF_PERICENTER":83.5412,"MEAN_ANOMALY":276.6065,"EPHEMERIS_TYPE":0,"CLASSIFICATION_TYPE":"U","NORAD_CAT_ID":56058,"ELEMENT_SET_NO":999,"REV_AT_EPOCH":15741,"BSTAR":-3.1601000000000005e-06,"MEAN_MOTION_DOT":1.2e-07,"MEAN_MOTION_DDOT":0.0},{"OBJECT_NAME":"ONEWEB-0558","OBJECT_ID":"2023-043P","EPOCH":"2026-06-05T11:37:02.889408","MEAN_MOTION":13.21827217,"ECCENTRICITY":0.0001942,"INCLINATION":87.9257,"RA_OF_ASC_NODE":246.3068,"ARG_OF_PERICENTER":109.2985,"MEAN_ANOMALY":250.8359,"EPHEMERIS_TYPE":0,"CLASSIFICATION_TYPE":"U","NORAD_CAT_ID":56059,"ELEMENT_SET_NO":999,"REV_AT_EPOCH":15669,"BSTAR":9.752e-05,"MEAN_MOTION_DOT":5.3e-07,"MEAN_MOTION_DDOT":0.0}]